     3.02           N: GNSS NAV DATA    M: Mixed            RINEX VERSION / TYPE
RTKCONV demo5 b34i                      20251009 063630 UTC PGM / RUN BY / DATE 
format: RINEX                                               COMMENT             
log: E:\University\Work\Data\071025\IGS000USA_R_20252800000_COMMENT             
                                                            END OF HEADER       
G05 2025 10 07 00 00 00 -.221067108214D-03 -.795807864051D-12  .000000000000D+00
      .220000000000D+02  .528750000000D+02  .391694887093D-08  .570579670934D+00
      .282377004623D-05  .562873773742D-02  .120848417282D-04  .515362626266D+04
      .172800000000D+06 -.122934579849D-06  .410985686426D+00 -.108033418655D-06
      .978338922257D+00  .160468750000D+03  .143969071011D+01 -.779175312922D-08
      .457519057505D-09  .100000000000D+01  .238700000000D+04  .000000000000D+00
      .200000000000D+01  .000000000000D+00 -.107102096081D-07  .220000000000D+02
      .165618000000D+06  .400000000000D+01